[
    {
        "Altitude(m)": 610399.5013765371,
        "Argument of Periapsis(deg)": 0.0,
        "Eccentricity": 0.0,
        "Inclination(deg)": 60.0,
        "Latitude(deg)": 52.11125918405229,
        "Longitude(deg)": -72.41573391376738,
        "Mean Anomaly(deg)": -294.5455,
        "RAAN(deg)": 340.00000000000006,
        "Satellite Name": "Test1 1500",
        "Satellite Number": 1500,
        "Semi-Major Axis(m)": 6980739.136638005,
        "Time(s)": 0
    },
    {
        "Altitude(m)": 610481.6527073425,
        "Argument of Periapsis(deg)": 0.00010418945913296404,
        "Eccentricity": 0.0,
        "Inclination(deg)": 60.0,
        "Latitude(deg)": 52.4708618745069,
        "Longitude(deg)": -71.63359954895513,
        "Mean Anomaly(deg)": -293.9253938545382,
        "RAAN(deg)": 339.99957995086027,
        "Satellite Name": "Test1 1500",
        "Satellite Number": 1500,
        "Semi-Major Axis(m)": 6980739.136638005,
        "Time(s)": 10
    }
]